[{"OBJECT_NAME":"STARLINK-4334","OBJECT_ID":"2022-105T","EPOCH":"2026-03-09T15:00:13.080096","MEAN_MOTION":15.05652455,"ECCENTRICITY":0.0002338,"INCLINATION":97.6033,"RA_OF_ASC_NODE":311.1978,"ARG_OF_PERICENTER":71.2278,"MEAN_ANOMALY":288.9203,"EPHEMERIS_TYPE":0,"CLASSIFICATION_TYPE":"U","NORAD_CAT_ID":53665,"ELEMENT_SET_NO":999,"REV_AT_EPOCH":19329,"BSTAR":7.4915e-6,"MEAN_MOTION_DOT":4.7e-7,"MEAN_MOTION_DDOT":0},{"OBJECT_NAME":"PEGASUS DEB","OBJECT_ID":"1994-029ZE","EPOCH":"2026-03-08T13:49:14.638368","MEAN_MOTION":13.44629817,"ECCENTRICITY":0.07289068,"INCLINATION":81.5203,"RA_OF_ASC_NODE":278.2553,"ARG_OF_PERICENTER":266.581,"MEAN_ANOMALY":85.1759,"EPHEMERIS_TYPE":0,"CLASSIFICATION_TYPE":"U","NORAD_CAT_ID":24602,"ELEMENT_SET_NO":999,"REV_AT_EPOCH":43194,"BSTAR":0.00096331603,"MEAN_MOTION_DOT":2.96e-5,"MEAN_MOTION_DDOT":0}]
